[{"OBJECT_NAME":"ONEWEB-0514","OBJECT_ID":"2022-138V","EPOCH":"2025-11-28T02:33:07.800192","MEAN_MOTION":13.19727662,"ECCENTRICITY":0.0001712,"INCLINATION":87.9201,"RA_OF_ASC_NODE":344.9728,"ARG_OF_PERICENTER":92.8169,"MEAN_ANOMALY":267.3159,"EPHEMERIS_TYPE":0,"CLASSIFICATION_TYPE":"U","NORAD_CAT_ID":54132,"ELEMENT_SET_NO":999,"REV_AT_EPOCH":15030,"BSTAR":3.6602e-5,"MEAN_MOTION_DOT":2.8e-7,"MEAN_MOTION_DDOT":0},{"OBJECT_NAME":"ONEWEB-0515","OBJECT_ID":"2022-138W","EPOCH":"2025-11-28T05:05:02.894784","MEAN_MOTION":13.20769645,"ECCENTRICITY":0.000155,"INCLINATION":87.9193,"RA_OF_ASC_NODE":314.5023,"ARG_OF_PERICENTER":57.1954,"MEAN_ANOMALY":302.9328,"EPHEMERIS_TYPE":0,"CLASSIFICATION_TYPE":"U","NORAD_CAT_ID":54133,"ELEMENT_SET_NO":999,"REV_AT_EPOCH":15277,"BSTAR":0.00024667,"MEAN_MOTION_DOT":1.13e-6,"MEAN_MOTION_DDOT":0},{"OBJECT_NAME":"ONEWEB-0516","OBJECT_ID":"2022-138X","EPOCH":"2025-11-28T01:56:44.993184","MEAN_MOTION":13.1972357,"ECCENTRICITY":0.000192,"INCLINATION":87.9195,"RA_OF_ASC_NODE":344.9989,"ARG_OF_PERICENTER":88.7042,"MEAN_ANOMALY":271.431,"EPHEMERIS_TYPE":0,"CLASSIFICATION_TYPE":"U","NORAD_CAT_ID":54134,"ELEMENT_SET_NO":999,"REV_AT_EPOCH":15030,"BSTAR":7.0425e-5,"MEAN_MOTION_DOT":4.1e-7,"MEAN_MOTION_DDOT":0},{"OBJECT_NAME":"ONEWEB-0517","OBJECT_ID":"2022-138Y","EPOCH":"2025-11-28T01:27:10.662048","MEAN_MOTION":13.1972773,"ECCENTRICITY":0.0001744,"INCLINATION":87.921,"RA_OF_ASC_NODE":344.9806,"ARG_OF_PERICENTER":101.2247,"MEAN_ANOMALY":258.9082,"EPHEMERIS_TYPE":0,"CLASSIFICATION_TYPE":"U","NORAD_CAT_ID":54135,"ELEMENT_SET_NO":999,"REV_AT_EPOCH":15030,"BSTAR":0.00020203,"MEAN_MOTION_DOT":9.4e-7,"MEAN_MOTION_DDOT":0},{"OBJECT_NAME":"ONEWEB-0518","OBJECT_ID":"2022-138Z","EPOCH":"2025-11-28T01:54:27.898848","MEAN_MOTION":13.19724834,"ECCENTRICITY":0.0001961,"INCLINATION":87.9196,"RA_OF_ASC_NODE":345.0014,"ARG_OF_PERICENTER":92.3048,"MEAN_ANOMALY":267.8309,"EPHEMERIS_TYPE":0,"CLASSIFICATION_TYPE":"U","NORAD_CAT_ID":54136,"ELEMENT_SET_NO":999,"REV_AT_EPOCH":15030,"BSTAR":-0.0007875,"MEAN_MOTION_DOT":-3.02e-6,"MEAN_MOTION_DDOT":0},{"OBJECT_NAME":"ONEWEB-0519","OBJECT_ID":"2022-138AA","EPOCH":"2025-11-28T02:30:51.492096","MEAN_MOTION":13.19727929,"ECCENTRICITY":0.0001796,"INCLINATION":87.9212,"RA_OF_ASC_NODE":344.963,"ARG_OF_PERICENTER":98.5806,"MEAN_ANOMALY":261.5531,"EPHEMERIS_TYPE":0,"CLASSIFICATION_TYPE":"U","NORAD_CAT_ID":54137,"ELEMENT_SET_NO":999,"REV_AT_EPOCH":15031,"BSTAR":-1.8584e-5,"MEAN_MOTION_DOT":6.0e-8,"MEAN_MOTION_DDOT":0},{"OBJECT_NAME":"ONEWEB-0520","OBJECT_ID":"2022-138AB","EPOCH":"2025-11-28T01:31:43.559040","MEAN_MOTION":13.19723603,"ECCENTRICITY":0.0002097,"INCLINATION":87.9213,"RA_OF_ASC_NODE":344.9755,"ARG_OF_PERICENTER":90.7075,"MEAN_ANOMALY":269.4298,"EPHEMERIS_TYPE":0,"CLASSIFICATION_TYPE":"U","NORAD_CAT_ID":54138,"ELEMENT_SET_NO":999,"REV_AT_EPOCH":15029,"BSTAR":0.0001077,"MEAN_MOTION_DOT":5.6e-7,"MEAN_MOTION_DDOT":0},{"OBJECT_NAME":"ONEWEB-0521","OBJECT_ID":"2022-138AC","EPOCH":"2025-11-28T02:19:29.541216","MEAN_MOTION":13.1972345,"ECCENTRICITY":0.0001689,"INCLINATION":87.9208,"RA_OF_ASC_NODE":344.9535,"ARG_OF_PERICENTER":99.2152,"MEAN_ANOMALY":260.9171,"EPHEMERIS_TYPE":0,"CLASSIFICATION_TYPE":"U","NORAD_CAT_ID":54139,"ELEMENT_SET_NO":999,"REV_AT_EPOCH":15024,"BSTAR":-0.00012191,"MEAN_MOTION_DOT":-3.6e-7,"MEAN_MOTION_DDOT":0},{"OBJECT_NAME":"ONEWEB-0522","OBJECT_ID":"2022-138AD","EPOCH":"2025-11-28T01:49:56.335008","MEAN_MOTION":13.19725463,"ECCENTRICITY":0.0002002,"INCLINATION":87.9214,"RA_OF_ASC_NODE":344.9589,"ARG_OF_PERICENTER":93.0478,"MEAN_ANOMALY":267.0883,"EPHEMERIS_TYPE":0,"CLASSIFICATION_TYPE":"U","NORAD_CAT_ID":54140,"ELEMENT_SET_NO":999,"REV_AT_EPOCH":15028,"BSTAR":8.608e-5,"MEAN_MOTION_DOT":4.7e-7,"MEAN_MOTION_DDOT":0},{"OBJECT_NAME":"ONEWEB-0523","OBJECT_ID":"2022-138AE","EPOCH":"2025-11-28T04:46:53.139360","MEAN_MOTION":13.20772914,"ECCENTRICITY":0.0001025,"INCLINATION":87.9181,"RA_OF_ASC_NODE":314.524,"ARG_OF_PERICENTER":77.4026,"MEAN_ANOMALY":282.7222,"EPHEMERIS_TYPE":0,"CLASSIFICATION_TYPE":"U","NORAD_CAT_ID":54141,"ELEMENT_SET_NO":999,"REV_AT_EPOCH":15277,"BSTAR":0.00012992,"MEAN_MOTION_DOT":6.6e-7,"MEAN_MOTION_DDOT":0},{"OBJECT_NAME":"ONEWEB-0524","OBJECT_ID":"2022-138AF","EPOCH":"2025-11-28T04:30:58.247424","MEAN_MOTION":13.20770199,"ECCENTRICITY":0.0001839,"INCLINATION":87.9183,"RA_OF_ASC_NODE":314.5283,"ARG_OF_PERICENTER":56.5868,"MEAN_ANOMALY":303.5441,"EPHEMERIS_TYPE":0,"CLASSIFICATION_TYPE":"U","NORAD_CAT_ID":54142,"ELEMENT_SET_NO":999,"REV_AT_EPOCH":15277,"BSTAR":6.6631e-5,"MEAN_MOTION_DOT":4.0e-7,"MEAN_MOTION_DDOT":0},{"OBJECT_NAME":"ONEWEB-0525","OBJECT_ID":"2022-138AG","EPOCH":"2025-11-28T02:17:13.231392","MEAN_MOTION":13.19723466,"ECCENTRICITY":0.0002134,"INCLINATION":87.9205,"RA_OF_ASC_NODE":344.9761,"ARG_OF_PERICENTER":91.3383,"MEAN_ANOMALY":268.7994,"EPHEMERIS_TYPE":0,"CLASSIFICATION_TYPE":"U","NORAD_CAT_ID":54143,"ELEMENT_SET_NO":999,"REV_AT_EPOCH":15030,"BSTAR":-8.6252e-5,"MEAN_MOTION_DOT":-2.2e-7,"MEAN_MOTION_DDOT":0},{"OBJECT_NAME":"ONEWEB-0526","OBJECT_ID":"2022-138AH","EPOCH":"2025-11-28T01:15:47.697696","MEAN_MOTION":13.19728218,"ECCENTRICITY":0.0001876,"INCLINATION":87.9208,"RA_OF_ASC_NODE":344.9726,"ARG_OF_PERICENTER":90.3916,"MEAN_ANOMALY":269.7432,"EPHEMERIS_TYPE":0,"CLASSIFICATION_TYPE":"U","NORAD_CAT_ID":54144,"ELEMENT_SET_NO":999,"REV_AT_EPOCH":15027,"BSTAR":9.2737e-5,"MEAN_MOTION_DOT":5.0e-7,"MEAN_MOTION_DDOT":0},{"OBJECT_NAME":"ONEWEB-0529","OBJECT_ID":"2022-138AJ","EPOCH":"2025-11-28T03:09:31.546368","MEAN_MOTION":13.19725167,"ECCENTRICITY":0.0002081,"INCLINATION":87.9192,"RA_OF_ASC_NODE":344.9862,"ARG_OF_PERICENTER":90.1485,"MEAN_ANOMALY":269.9886,"EPHEMERIS_TYPE":0,"CLASSIFICATION_TYPE":"U","NORAD_CAT_ID":54145,"ELEMENT_SET_NO":999,"REV_AT_EPOCH":15030,"BSTAR":-0.00059364,"MEAN_MOTION_DOT":-2.25e-6,"MEAN_MOTION_DDOT":0},{"OBJECT_NAME":"ONEWEB-0531","OBJECT_ID":"2022-138AK","EPOCH":"2025-11-27T20:54:08.910144","MEAN_MOTION":13.207686,"ECCENTRICITY":0.0001203,"INCLINATION":87.9188,"RA_OF_ASC_NODE":314.5838,"ARG_OF_PERICENTER":59.7193,"MEAN_ANOMALY":300.4059,"EPHEMERIS_TYPE":0,"CLASSIFICATION_TYPE":"U","NORAD_CAT_ID":54146,"ELEMENT_SET_NO":999,"REV_AT_EPOCH":15273,"BSTAR":-0.00020762,"MEAN_MOTION_DOT":-7.1e-7,"MEAN_MOTION_DDOT":0},{"OBJECT_NAME":"ONEWEB-0535","OBJECT_ID":"2022-138AL","EPOCH":"2025-11-28T02:08:07.141056","MEAN_MOTION":13.19720754,"ECCENTRICITY":0.0001421,"INCLINATION":87.921,"RA_OF_ASC_NODE":344.9603,"ARG_OF_PERICENTER":93.4916,"MEAN_ANOMALY":266.638,"EPHEMERIS_TYPE":0,"CLASSIFICATION_TYPE":"U","NORAD_CAT_ID":54147,"ELEMENT_SET_NO":999,"REV_AT_EPOCH":15031,"BSTAR":1.0928e-5,"MEAN_MOTION_DOT":1.7e-7,"MEAN_MOTION_DDOT":0},{"OBJECT_NAME":"ONEWEB-0536","OBJECT_ID":"2022-138AM","EPOCH":"2025-11-27T20:35:59.604000","MEAN_MOTION":13.20771395,"ECCENTRICITY":0.0001327,"INCLINATION":87.9182,"RA_OF_ASC_NODE":314.6309,"ARG_OF_PERICENTER":52.3449,"MEAN_ANOMALY":307.7805,"EPHEMERIS_TYPE":0,"CLASSIFICATION_TYPE":"U","NORAD_CAT_ID":54148,"ELEMENT_SET_NO":999,"REV_AT_EPOCH":15272,"BSTAR":-0.00023488,"MEAN_MOTION_DOT":-8.3e-7,"MEAN_MOTION_DDOT":0}]
