ONEWEB-0514             
1 54132U 22138V   25332.10634028  .00000028  00000+0  36602-4 0  9990
2 54132  87.9201 344.9728 0001712  92.8169 267.3159 13.19727662150303
ONEWEB-0515             
1 54133U 22138W   25332.21183906  .00000113  00000+0  24667-3 0  9999
2 54133  87.9193 314.5023 0001550  57.1954 302.9328 13.20769645152777
ONEWEB-0516             
1 54134U 22138X   25332.08107631  .00000041  00000+0  70425-4 0  9990
2 54134  87.9195 344.9989 0001920  88.7042 271.4310 13.19723570150300
ONEWEB-0517             
1 54135U 22138Y   25332.06054007  .00000094  00000+0  20203-3 0  9993
2 54135  87.9210 344.9806 0001744 101.2247 258.9082 13.19727730150307
ONEWEB-0518             
1 54136U 22138Z   25332.07948957 -.00000302  00000+0 -78750-3 0  9995
2 54136  87.9196 345.0014 0001961  92.3048 267.8309 13.19724834150307
ONEWEB-0519             
1 54137U 22138AA  25332.10476264  .00000006  00000+0 -18584-4 0  9997
2 54137  87.9212 344.9630 0001796  98.5806 261.5531 13.19727929150312
ONEWEB-0520             
1 54138U 22138AB  25332.06369860  .00000056  00000+0  10770-3 0  9998
2 54138  87.9213 344.9755 0002097  90.7075 269.4298 13.19723603150298
ONEWEB-0521             
1 54139U 22138AC  25332.09686969 -.00000036  00000+0 -12191-3 0  9993
2 54139  87.9208 344.9535 0001689  99.2152 260.9171 13.19723450150246
ONEWEB-0522             
1 54140U 22138AD  25332.07634647  .00000047  00000+0  86080-4 0  9998
2 54140  87.9214 344.9589 0002002  93.0478 267.0883 13.19725463150285
ONEWEB-0523             
1 54141U 22138AE  25332.19922615  .00000066  00000+0  12992-3 0  9998
2 54141  87.9181 314.5240 0001025  77.4026 282.7222 13.20772914152777
ONEWEB-0524             
1 54142U 22138AF  25332.18817416  .00000040  00000+0  66631-4 0  9992
2 54142  87.9183 314.5283 0001839  56.5868 303.5441 13.20770199152770
ONEWEB-0525             
1 54143U 22138AG  25332.09529203 -.00000022  00000+0 -86252-4 0  9990
2 54143  87.9205 344.9761 0002134  91.3383 268.7994 13.19723466150307
ONEWEB-0526             
1 54144U 22138AH  25332.05263539  .00000050  00000+0  92737-4 0  9998
2 54144  87.9208 344.9726 0001876  90.3916 269.7432 13.19728218150279
ONEWEB-0529             
1 54145U 22138AJ  25332.13161512 -.00000225  00000+0 -59364-3 0  9990
2 54145  87.9192 344.9862 0002081  90.1485 269.9886 13.19725167150300
ONEWEB-0531             
1 54146U 22138AK  25331.87093646 -.00000071  00000+0 -20762-3 0  9992
2 54146  87.9188 314.5838 0001203  59.7193 300.4059 13.20768600152737
ONEWEB-0535             
1 54147U 22138AL  25332.08897154  .00000017  00000+0  10928-4 0  9995
2 54147  87.9210 344.9603 0001421  93.4916 266.6380 13.19720754150319
ONEWEB-0536             
1 54148U 22138AM  25331.85832875 -.00000083  00000+0 -23488-3 0  9998
2 54148  87.9182 314.6309 0001327  52.3449 307.7805 13.20771395152720
